{
  "type": "FeatureCollection",
  "features": [
    {
      "type": "Feature",
      "properties": {
        "norad_id": 66561,
        "name": "STARLINK-35305",
        "group": "last-30-days",
        "lat": 16.47061282084101,
        "lon": -97.34077752167676,
        "alt_km": 412.41617154853066,
        "timestamp": "2025-12-16T03:53:25.815484+00:00",
        "meta_object_name": "STARLINK-35305",
        "meta_object_id": "2025-268E",
        "meta_epoch": "2025-12-15T00:56:37.934880",
        "meta_mean_motion": 15.50605489,
        "meta_eccentricity": 0.00012742,
        "meta_inclination": 42.9993,
        "meta_ra_of_asc_node": 107.728,
        "meta_arg_of_pericenter": 266.5161,
        "meta_mean_anomaly": 93.5553,
        "meta_ephemeris_type": 0,
        "meta_classification_type": "U",
        "meta_norad_cat_id": 66561,
        "meta_element_set_no": 999,
        "meta_rev_at_epoch": 498,
        "meta_bstar": 0.00089073152,
        "meta_mean_motion_dot": 0.00052312,
        "meta_mean_motion_ddot": 0,
        "tle_line1": "1 66561U 25268E   25349.03932795  .00052312  00000+0  89073-3 0  9990",
        "tle_line2": "2 66561  42.9993 107.7280 0001274 266.5161  93.5553 15.50605489  4982"
      },
      "geometry": {
        "type": "Point",
        "coordinates": [
          -97.34077752167676,
          16.47061282084101
        ]
      }
    },
    {
      "type": "Feature",
      "properties": {
        "norad_id": 66562,
        "name": "STARLINK-35579",
        "group": "last-30-days",
        "lat": 17.833961653377013,
        "lon": -99.03402265686071,
        "alt_km": 412.1469355078234,
        "timestamp": "2025-12-16T03:53:25.815494+00:00",
        "meta_object_name": "STARLINK-35579",
        "meta_object_id": "2025-268F",
        "meta_epoch": "2025-12-15T08:40:55.860096",
        "meta_mean_motion": 15.50599966,
        "meta_eccentricity": 0.00012605,
        "meta_inclination": 42.9985,
        "meta_ra_of_asc_node": 105.8472,
        "meta_arg_of_pericenter": 258.8727,
        "meta_mean_anomaly": 101.1992,
        "meta_ephemeris_type": 0,
        "meta_classification_type": "U",
        "meta_norad_cat_id": 66562,
        "meta_element_set_no": 999,
        "meta_rev_at_epoch": 503,
        "meta_bstar": 0.0011295725,
        "meta_mean_motion_dot": 0.0006654,
        "meta_mean_motion_ddot": 0,
        "tle_line1": "1 66562U 25268F   25349.36175764  .00066540  00000+0  11296-2 0  9991",
        "tle_line2": "2 66562  42.9985 105.8472 0001260 258.8727 101.1992 15.50599966  5035"
      },
      "geometry": {
        "type": "Point",
        "coordinates": [
          -99.03402265686071,
          17.833961653377013
        ]
      }
    },
    {
      "type": "Feature",
      "properties": {
        "norad_id": 66563,
        "name": "STARLINK-35437",
        "group": "last-30-days",
        "lat": 15.125267132846357,
        "lon": -95.70943394520779,
        "alt_km": 412.582662906465,
        "timestamp": "2025-12-16T03:53:25.815505+00:00",
        "meta_object_name": "STARLINK-35437",
        "meta_object_id": "2025-268G",
        "meta_epoch": "2025-12-15T00:56:07.694880",
        "meta_mean_motion": 15.50634444,
        "meta_eccentricity": 0.00014347,
        "meta_inclination": 42.9994,
        "meta_ra_of_asc_node": 107.7248,
        "meta_arg_of_pericenter": 267.9367,
        "meta_mean_anomaly": 92.1329,
        "meta_ephemeris_type": 0,
        "meta_classification_type": "U",
        "meta_norad_cat_id": 66563,
        "meta_element_set_no": 999,
        "meta_rev_at_epoch": 498,
        "meta_bstar": 0.00088921968,
        "meta_mean_motion_dot": 0.00052277,
        "meta_mean_motion_ddot": 0,
        "tle_line1": "1 66563U 25268G   25349.03897795  .00052277  00000+0  88922-3 0  9994",
        "tle_line2": "2 66563  42.9994 107.7248 0001434 267.9367  92.1329 15.50634444  4989"
      },
      "geometry": {
        "type": "Point",
        "coordinates": [
          -95.70943394520779,
          15.125267132846357
        ]
      }
    },
    {
      "type": "Feature",
      "properties": {
        "norad_id": 66564,
        "name": "STARLINK-35358",
        "group": "last-30-days",
        "lat": 13.950694432498995,
        "lon": -94.31309203468219,
        "alt_km": 413.1122077830605,
        "timestamp": "2025-12-16T03:53:25.815515+00:00",
        "meta_object_name": "STARLINK-35358",
        "meta_object_id": "2025-268H",
        "meta_epoch": "2025-12-15T00:55:38.219520",
        "meta_mean_motion": 15.50603422,
        "meta_eccentricity": 0.0001478,
        "meta_inclination": 42.9993,
        "meta_ra_of_asc_node": 107.7222,
        "meta_arg_of_pericenter": 288.7254,
        "meta_mean_anomaly": 71.3446,
        "meta_ephemeris_type": 0,
        "meta_classification_type": "U",
        "meta_norad_cat_id": 66564,
        "meta_element_set_no": 999,
        "meta_rev_at_epoch": 498,
        "meta_bstar": 0.00092135734,
        "meta_mean_motion_dot": 0.00054132,
        "meta_mean_motion_ddot": 0,
        "tle_line1": "1 66564U 25268H   25349.03863680  .00054132  00000+0  92136-3 0  9995",
        "tle_line2": "2 66564  42.9993 107.7222 0001478 288.7254  71.3446 15.50603422  4986"
      },
      "geometry": {
        "type": "Point",
        "coordinates": [
          -94.31309203468219,
          13.950694432498995
        ]
      }
    },
    {
      "type": "Feature",
      "properties": {
        "norad_id": 66565,
        "name": "STARLINK-35893",
        "group": "last-30-days",
        "lat": 12.76164739709945,
        "lon": -92.92272993223023,
        "alt_km": 413.09064457085697,
        "timestamp": "2025-12-16T03:53:25.815525+00:00",
        "meta_object_name": "STARLINK-35893",
        "meta_object_id": "2025-268J",
        "meta_epoch": "2025-12-15T08:38:56.041440",
        "meta_mean_motion": 15.50605141,
        "meta_eccentricity": 0.00015725,
        "meta_inclination": 43.0003,
        "meta_ra_of_asc_node": 105.8353,
        "meta_arg_of_pericenter": 275.854,
        "meta_mean_anomaly": 84.2141,
        "meta_ephemeris_type": 0,
        "meta_classification_type": "U",
        "meta_norad_cat_id": 66565,
        "meta_element_set_no": 999,
        "meta_rev_at_epoch": 503,
        "meta_bstar": 0.0013089942,
        "meta_mean_motion_dot": 0.00077285,
        "meta_mean_motion_ddot": 0,
        "tle_line1": "1 66565U 25268J   25349.36037085  .00077285  00000+0  13090-2 0  9999",
        "tle_line2": "2 66565  43.0003 105.8353 0001572 275.8540  84.2141 15.50605141  5037"
      },
      "geometry": {
        "type": "Point",
        "coordinates": [
          -92.92272993223023,
          12.76164739709945
        ]
      }
    },
    {
      "type": "Feature",
      "properties": {
        "norad_id": 66566,
        "name": "STARLINK-35871",
        "group": "last-30-days",
        "lat": 11.538358792279633,
        "lon": -91.51526245567459,
        "alt_km": 413.31867115732257,
        "timestamp": "2025-12-16T03:53:25.815536+00:00",
        "meta_object_name": "STARLINK-35871",
        "meta_object_id": "2025-268K",
        "meta_epoch": "2025-12-15T08:38:26.493504",
        "meta_mean_motion": 15.50599824,
        "meta_eccentricity": 0.00011341,
        "meta_inclination": 42.9995,
        "meta_ra_of_asc_node": 105.8331,
        "meta_arg_of_pericenter": 281.9473,
        "meta_mean_anomaly": 78.126,
        "meta_ephemeris_type": 0,
        "meta_classification_type": "U",
        "meta_norad_cat_id": 66566,
        "meta_element_set_no": 999,
        "meta_rev_at_epoch": 503,
        "meta_bstar": 0.00084594013,
        "meta_mean_motion_dot": 0.00049637,
        "meta_mean_motion_ddot": 0,
        "tle_line1": "1 66566U 25268K   25349.36002886  .00049637  00000+0  84594-3 0  9999",
        "tle_line2": "2 66566  42.9995 105.8331 0001134 281.9473  78.1260 15.50599824  5033"
      },
      "geometry": {
        "type": "Point",
        "coordinates": [
          -91.51526245567459,
          11.538358792279633
        ]
      }
    },
    {
      "type": "Feature",
      "properties": {
        "norad_id": 66567,
        "name": "STARLINK-35825",
        "group": "last-30-days",
        "lat": 10.202170651235388,
        "lon": -90.00068440312339,
        "alt_km": 413.38481027123726,
        "timestamp": "2025-12-16T03:53:25.815548+00:00",
        "meta_object_name": "STARLINK-35825",
        "meta_object_id": "2025-268L",
        "meta_epoch": "2025-12-15T08:37:56.851392",
        "meta_mean_motion": 15.50623817,
        "meta_eccentricity": 0.00011793,
        "meta_inclination": 42.9985,
        "meta_ra_of_asc_node": 105.8308,
        "meta_arg_of_pericenter": 279.9072,
        "meta_mean_anomaly": 80.1655,
        "meta_ephemeris_type": 0,
        "meta_classification_type": "U",
        "meta_norad_cat_id": 66567,
        "meta_element_set_no": 999,
        "meta_rev_at_epoch": 503,
        "meta_bstar": 0.00096193206,
        "meta_mean_motion_dot": 0.00056589,
        "meta_mean_motion_ddot": 0,
        "tle_line1": "1 66567U 25268L   25349.35968578  .00056589  00000+0  96193-3 0  9990",
        "tle_line2": "2 66567  42.9985 105.8308 0001179 279.9072  80.1655 15.50623817  5039"
      },
      "geometry": {
        "type": "Point",
        "coordinates": [
          -90.00068440312339,
          10.202170651235388
        ]
      }
    }
  ]
}